[{"OBJECT_NAME":"SAUDISAT 5A","OBJECT_ID":"2018-102A","EPOCH":"2026-03-09T23:40:00.596928","MEAN_MOTION":15.26941021,"ECCENTRICITY":0.00113651,"INCLINATION":97.3185,"RA_OF_ASC_NODE":132.4981,"ARG_OF_PERICENTER":121.7113,"MEAN_ANOMALY":238.5235,"EPHEMERIS_TYPE":0,"CLASSIFICATION_TYPE":"U","NORAD_CAT_ID":43831,"ELEMENT_SET_NO":999,"REV_AT_EPOCH":40053,"BSTAR":0.00030305233,"MEAN_MOTION_DOT":7.96e-5,"MEAN_MOTION_DDOT":0},{"OBJECT_NAME":"STARLINK-31590","OBJECT_ID":"2024-045W","EPOCH":"2026-03-09T11:14:49.962912","MEAN_MOTION":15.2757136,"ECCENTRICITY":9.918e-5,"INCLINATION":43.0033,"RA_OF_ASC_NODE":94.125,"ARG_OF_PERICENTER":282.3271,"MEAN_ANOMALY":77.747,"EPHEMERIS_TYPE":0,"CLASSIFICATION_TYPE":"U","NORAD_CAT_ID":59198,"ELEMENT_SET_NO":999,"REV_AT_EPOCH":11312,"BSTAR":-1.4205082e-5,"MEAN_MOTION_DOT":-6.53e-6,"MEAN_MOTION_DDOT":0}]
